[{"OBJECT_NAME":"STARLINK-4257","OBJECT_ID":"2022-083BE","EPOCH":"2026-03-09T12:56:42.368064","MEAN_MOTION":15.08836838,"ECCENTRICITY":0.00014728,"INCLINATION":53.217,"RA_OF_ASC_NODE":124.3802,"ARG_OF_PERICENTER":97.3299,"MEAN_ANOMALY":262.7861,"EPHEMERIS_TYPE":0,"CLASSIFICATION_TYPE":"U","NORAD_CAT_ID":53184,"ELEMENT_SET_NO":999,"REV_AT_EPOCH":20190,"BSTAR":2.9831513e-5,"MEAN_MOTION_DOT":1.87e-6,"MEAN_MOTION_DDOT":0},{"OBJECT_NAME":"CZ-6A DEB","OBJECT_ID":"2022-151SL","EPOCH":"2026-03-09T10:13:37.626816","MEAN_MOTION":15.13067162,"ECCENTRICITY":0.00442991,"INCLINATION":99.1095,"RA_OF_ASC_NODE":231.9477,"ARG_OF_PERICENTER":182.6933,"MEAN_ANOMALY":177.4061,"EPHEMERIS_TYPE":0,"CLASSIFICATION_TYPE":"U","NORAD_CAT_ID":54947,"ELEMENT_SET_NO":999,"REV_AT_EPOCH":17723,"BSTAR":0.0054047259,"MEAN_MOTION_DOT":0.00099065,"MEAN_MOTION_DDOT":0}]
